
STARLINK-4042           
1 52661U 22053F   25036.64086275  .00004805  00000+0  31952-3 0  9995
2 52661  53.2165 136.5416 0001254  87.5999 272.5136 15.08868799151104
STARLINK-4044           
1 52662U 22053G   25036.56727146 -.00004043  00000+0 -23610-3 0  9994
2 52662  53.2164 136.8751 0001197  97.6118 262.5010 15.08837619151095
STARLINK-4037           
1 52663U 22053H   25036.69607919  .00000323  00000+0  38357-4 0  9994
2 52663  53.2167 136.2956 0001101  79.1418 280.9698 15.08847527151111
STARLINK-4070           
1 52664U 22053J   25036.63719101  .00000827  00000+0  70045-4 0  9995
2 52664  53.2176 136.5616 0001296  90.4033 269.7108 15.08843872151101
STARLINK-4064           
1 52665U 22053K   25036.68503779 -.00000276  00000+0  73529-6 0  9994
2 52665  53.2172 136.3418 0001343  96.1684 263.9461 15.08840622151113
STARLINK-4079           
1 52666U 22053L   25036.52306896  .00000554  00000+0  52889-4 0  9991
2 52666  53.2164 136.6833 0001262 102.0635 258.0499 15.08837799151096
STARLINK-4076           
1 52667U 22053M   25036.68134722  .00000740  00000+0  64553-4 0  9994
2 52667  53.2179 136.3582 0001390  87.9614 272.1537 15.08857416151112
STARLINK-4067           
1 52668U 22053N   25036.68871388  .00000694  00000+0  61691-4 0  9999
2 52668  53.2166 136.3243 0001379  97.5789 262.5359 15.08838272151114
STARLINK-3972           
1 52669U 22053P   25036.53787654  .00001624  00000+0  12021-3 0  9992
2 52669  53.2179 137.0005 0001030 108.8268 251.2836 15.08806634151083
STARLINK-4075           
1 52670U 22053Q   25036.69239946 -.00000466  00000+0 -11168-4 0  9994
2 52670  53.2171 136.3788 0001295  94.8005 265.3135 15.08852749150684
STARLINK-4071           
1 52671U 22053R   25036.53415390  .00000747  00000+0  65035-4 0  9999
2 52671  53.2162 137.0191 0001169  93.0152 267.0974 15.08843643150666
STARLINK-4073           
1 52672U 22053S   25036.74390908  .00001135  00000+0  89390-4 0  9992
2 52672  53.2172 136.0761 0001580  95.8690 264.2482 15.08844367150694
STARLINK-3976           
1 52673U 22053T   25036.52681453  .00007092  00000+0  46325-3 0  9995
2 52673  53.2159 137.0545 0001199  96.1916 263.9213 15.08837711151089
STARLINK-3936           
1 52674U 22053U   25036.74022994  .00002749  00000+0  19071-3 0  9991
2 52674  53.2167 136.0924 0001625  97.5677 262.5500 15.08843543151121
STARLINK-3934           
1 52675U 22053V   25036.52403363  .00001100  00000+0  87175-4 0  9992
2 52675  53.2169 127.0624 0001481  99.3062 260.8098 15.08840785151217
STARLINK-4006           
1 52676U 22053W   25036.66297196  .00001214  00000+0  94348-4 0  9999
2 52676  53.2185 136.4409 0001540  92.3272 267.7897 15.08835788151101
STARLINK-4028           
1 52677U 22053X   25036.51667423  .00003405  00000+0  23195-3 0  9993
2 52677  53.2173 127.0969 0001286  97.6308 262.4830 15.08833838151193
STARLINK-4074           
1 52678U 22053Y   25036.53508543  .00000708  00000+0  62556-4 0  9991
2 52678  53.2152 127.1215 0001339  96.3160 263.7985 15.08842925151212
STARLINK-4031           
1 52679U 22053Z   25036.63811131 -.00000080  00000+0  13091-4 0  9997
2 52679  53.2151 126.5517 0001321 105.7978 254.3160 15.08827873151196
STARLINK-3774           
1 52680U 22053AA  25036.63073725  .00002719  00000+0  18885-3 0  9993
2 52680  53.2188 126.3528 0002165  85.1748 274.9491 15.08841492151212
STARLINK-4068           
1 52681U 22053AB  25036.63443750  .00005082  00000+0  33698-3 0  9998
2 52681  53.2173 126.5698 0001856  77.5504 282.5696 15.08858583151196
STARLINK-4017           
1 52682U 22053AC  25036.51300341  .00002318  00000+0  16365-3 0  9995
2 52682  53.2162 127.1159 0000999  75.4644 284.6459 15.08840213150788
STARLINK-4014           
1 52684U 22053AE  25036.50932475  .00002776  00000+0  19236-3 0  9993
2 52684  53.2182 127.1290 0001459  86.7806 273.3354 15.08849744151176
STARLINK-4029           
1 52685U 22053AF  25036.61971397  .00000336  00000+0  39222-4 0  9990
2 52685  53.2176 126.6407 0001517 106.6350 253.4809 15.08843410150802
STARLINK-4005           
1 52686U 22053AG  25036.52502028  .00000228  00000+0  32414-4 0  9998
2 52686  53.2174 127.3389 0001498  92.8232 267.2932 15.08846491151163
STARLINK-3981           
1 52687U 22053AH  25036.54980946  .00000259  00000+0  34335-4 0  9998
2 52687  53.2180 126.9524 0001215  94.4243 265.6888 15.08836410151166
STARLINK-4032           
1 52688U 22053AJ  25036.61234648  .00001066  00000+0  85089-4 0  9997
2 52688  53.2168 126.5543 0001192  91.8026 268.3103 15.08832700151173
STARLINK-4078           
1 52689U 22053AK  25036.92847072  .00021779  00000+0  13460-2 0  9998
2 52689  53.2152 125.1691 0002330  45.2538 314.8644 15.09811960151254
STARLINK-4035           
1 52690U 22053AL  25036.62339490  .00000363  00000+0  40918-4 0  9993
2 52690  53.2175 126.6207 0001447  82.3279 277.7877 15.08843509151171
STARLINK-3993           
1 52692U 22053AN  25036.52032496  .00001115  00000+0  88122-4 0  9995
2 52692  53.2193 126.8086 0001607  99.3348 260.7826 15.08838585151199
STARLINK-3946           
1 52693U 22053AP  25036.66019978  .00001550  00000+0  11544-3 0  9997
2 52693  53.2178 126.4508 0001377  96.1344 263.9805 15.08835879151211
STARLINK-4072           
1 52694U 22053AQ  25036.54243496  .00000949  00000+0  77680-4 0  9994
2 52694  53.2163 126.9860 0001420  88.0265 272.0890 15.08842559151198
STARLINK-4041           
1 52695U 22053AR  25036.51435081  .00001281  00000+0  98540-4 0  9993
2 52695  53.2160 131.9091 0001309  98.8621 261.2519 15.08837146151137
STARLINK-4018           
1 52697U 22053AT  25036.54109919  .00000009  00000+0  18688-4 0  9998
2 52697  53.2176 131.9913 0001330  82.3273 277.7870 15.08832743151134
STARLINK-4030           
1 52698U 22053AU  25036.55117804  .00001795  00000+0  13084-3 0  9999
2 52698  53.2183 131.9384 0001291  75.9853 284.1283 15.08836918151120
STARLINK-3987           
1 52699U 22053AV  25036.92746035  .00000415  00000+0  44192-4 0  9998
2 52699  53.2167 120.2863 0001323  85.2960 274.8183 15.08840083150914
STARLINK-4034           
1 52700U 22053AW  25036.64311995  .00004276  00000+0  28636-3 0  9996
2 52700  53.2177 131.1780 0001529  95.9253 264.1913 15.08869645151153
STARLINK-4033           
1 52702U 22053AY  25036.67262518  .00005164  00000+0  34219-3 0  9998
2 52702  53.2161 131.4242 0001402  92.3004 267.8149 15.08850955150748
STARLINK-4020           
1 52703U 22053AZ  25036.63166176 -.00006364  00000+0 -38176-3 0  9999
2 52703  53.2186 116.5964 0001705 109.2558 250.8619 15.08873298150096
STARLINK-3999           
1 52704U 22053BA  25036.91134718  .00004168  00000+0  27968-3 0  9993
2 52704  53.2182 115.3275 0001601  96.9940 263.1234 15.08854039150987
STARLINK-3844           
1 52705U 22053BB  25036.90031854 -.00001665  00000+0 -86564-4 0  9999
2 52705  53.2176 115.3753 0001603 103.5660 256.5510 15.08830375151417
STARLINK-3970           
1 52706U 22053BC  25036.50655442 -.00005149  00000+0 -30582-3 0  9990
2 52706  53.2156 117.1462 0001659 116.5466 243.5696 15.08822075151354
STARLINK-4007           
1 52707U 22053BD  25036.48445962  .00000751  00000+0  65265-4 0  9991
2 52707  53.2174 117.1267 0001406 102.5859 257.5290 15.08841398151410
STARLINK-3962           
1 52708U 22053BE  25036.92608044  .00000048  00000+0  21102-4 0  9994
2 52708  53.2174 115.2532 0001421  94.8032 265.3123 15.08837489151629
COSMOS 2556             
1 52713U 22054A   25036.96384323  .00010455  00000+0  38800-3 0  9991
2 52713  97.5793 333.9719 0012538 100.9830 259.2820 15.27706433151109
2022-056B               
1 52717U 22056B   25036.90157191  .00000044  00000+0  62152-4 0  9993
2 52717  86.0050 291.5368 0043827 312.5259  47.2179 13.29595720132366
GHGSAT-C3               
1 52737U 22057F   25036.91769321  .00011162  00000+0  44087-3 0  9990
2 52737  97.5933 164.3221 0008180  75.2493 284.9651 15.25658461149640
CONNECTA T1.1           
1 52739U 22057H   25036.92758069  .00040037  00000+0  95830-3 0  9995
2 52739  97.5953 170.3625 0006053  56.0854 304.0967 15.41327550150000
GHGSAT-C5               
1 52744U 22057N   25036.89142383  .00011633  00000+0  45874-3 0  9996
2 52744  97.6016 165.2864 0009254  72.3545 287.8702 15.25694038149642
GHGSAT-C4               
1 52746U 22057Q   25036.93742484  .00010951  00000+0  43249-3 0  9997
2 52746  97.5866 163.6511 0008407  62.9459 297.2635 15.25664798149656
NUSAT-28 (ALICE LEE)    
1 52747U 22057R   25036.90272369  .00034224  00000+0  10085-2 0  9995
2 52747  97.4767 163.4275 0007681 334.6249  25.4616 15.34927331150422
CARCARA 1 (ICEYE-X18)   
1 52749U 22057T   25036.86819527  .00282884  00000+0  20804-2 0  9992
2 52749  97.5660 174.1494 0007826 317.4052  42.6603 15.72215222150340
NUSAT-31 (RUBY PAYNE-S) 
1 52752U 22057W   25036.89843296  .00047275  00000+0  10265-2 0  9992
2 52752  97.6022 175.0363 0005320   6.1436 353.9876 15.44211982150323
HAWK-5C                 
1 52754U 22057Y   25036.25448325  .00017223  00000+0  55383-3 0  9999
2 52754  97.5974 168.6212 0007676  56.1304 304.0667 15.32295349149796
HAWK-5B                 
1 52756U 22057AA  25036.25437233  .00017071  00000+0  54908-3 0  9990
2 52756  97.5963 167.0470 0008098  51.5917 308.6050 15.32284947149791
HAWK-5A                 
1 52757U 22057AB  25036.25414035  .00017230  00000+0  55414-3 0  9996
2 52757  97.5970 167.8298 0008430  53.3154 306.8861 15.32284015149795
CARCARA 2 (ICEYE-X19)   
1 52758U 22057AC  25036.94451813  .00362797  00000+0  18180-2 0  9997
2 52758  97.5590 178.4139 0012721 301.1790  58.8229 15.80709410150602
ICEYE-X20               
1 52759U 22057AD  25036.94536158  .00046898  00000+0  63659-3 0  9997
2 52759  97.5859 182.3096 0005729 355.6947   4.4257 15.57485390150830
